[{"OBJECT_NAME":"SKYSAT-C13","OBJECT_ID":"2018-099AW","EPOCH":"2026-03-09T15:57:39.212352","MEAN_MOTION":15.7671015,"ECCENTRICITY":0.00039856,"INCLINATION":96.9402,"RA_OF_ASC_NODE":116.3001,"ARG_OF_PERICENTER":199.1701,"MEAN_ANOMALY":160.9417,"EPHEMERIS_TYPE":0,"CLASSIFICATION_TYPE":"U","NORAD_CAT_ID":43802,"ELEMENT_SET_NO":999,"REV_AT_EPOCH":40716,"BSTAR":0.00055859913,"MEAN_MOTION_DOT":0.00089861,"MEAN_MOTION_DDOT":0},{"OBJECT_NAME":"STARLINK-11618 [DTC]","OBJECT_ID":"2025-048C","EPOCH":"2026-03-09T01:18:44.426304","MEAN_MOTION":15.70893262,"ECCENTRICITY":0.00015703,"INCLINATION":42.9993,"RA_OF_ASC_NODE":323.5152,"ARG_OF_PERICENTER":305.1476,"MEAN_ANOMALY":54.9244,"EPHEMERIS_TYPE":0,"CLASSIFICATION_TYPE":"U","NORAD_CAT_ID":63185,"ELEMENT_SET_NO":999,"REV_AT_EPOCH":5841,"BSTAR":0.0023824472,"MEAN_MOTION_DOT":0.0031795,"MEAN_MOTION_DDOT":0}]
