SKYSAT-C13              
1 43802U 18099AW  26068.66503718  .00089861  00000+0  55860-3 0  9990
2 43802  96.9402 116.3001 0003986 199.1701 160.9417 15.76710150407164
STARLINK-11618 [DTC]    
1 63185U 25048C   26068.05468086  .00317950  00000+0  23824-2 0  9996
2 63185  42.9993 323.5152 0001570 305.1476  54.9244 15.70893262 58410
